{
    "links": {
        "self": "http://www.neowsapp.com/rest/v1/neo/3092414?api_key=iIulBulltgU6a56xZRHN4H3l9WmuAYTsLGpBGhQ2"
    },
    "id": "3092414",
    "neo_reference_id": "3092414",
    "name": "(2001 UD18)",
    "designation": "2001 UD18",
    "nasa_jpl_url": "http://ssd.jpl.nasa.gov/sbdb.cgi?sstr=3092414",
    "absolute_magnitude_h": 27.6,
    "estimated_diameter": {
        "kilometers": {
            "estimated_diameter_min": 0.0080270317,
            "estimated_diameter_max": 0.0179489885
        },
        "meters": {
            "estimated_diameter_min": 8.0270316728,
            "estimated_diameter_max": 17.948988478
        },
        "miles": {
            "estimated_diameter_min": 0.0049877647,
            "estimated_diameter_max": 0.0111529809
        },
        "feet": {
            "estimated_diameter_min": 26.3354065935,
            "estimated_diameter_max": 58.8877593581
        }
    },
    "is_potentially_hazardous_asteroid": false,
    "close_approach_data": [
        {
            "close_approach_date": "2001-10-26",
            "close_approach_date_full": "2001-Oct-26 04:55",
            "epoch_date_close_approach": 1004072100000,
            "relative_velocity": {
                "kilometers_per_second": "5.9492091445",
                "kilometers_per_hour": "21417.1529201239",
                "miles_per_hour": "13307.7859352848"
            },
            "miss_distance": {
                "astronomical": "0.0129956247",
                "lunar": "5.0552980083",
                "kilometers": "1944117.774439389",
                "miles": "1208018.7684620082"
            },
            "orbiting_body": "Earth"
        }
    ],
    "orbital_data": {
        "orbit_id": "7",
        "orbit_determination_date": "2017-04-06 09:15:55",
        "first_observation_date": "2001-10-26",
        "last_observation_date": "2001-10-27",
        "data_arc_in_days": 1,
        "observations_used": 8,
        "orbit_uncertainty": "8",
        "minimum_orbit_intersection": ".0129649",
        "jupiter_tisserand_invariant": "3.920",
        "epoch_osculation": "2452209.5",
        "eccentricity": ".4459690453141558",
        "semi_major_axis": "1.817133631988825",
        "inclination": "2.788203067390463",
        "ascending_node_longitude": "211.9609920580912",
        "orbital_period": "894.7026560543605",
        "perihelion_distance": "1.006748280922524",
        "perihelion_argument": "183.3633594810378",
        "aphelion_distance": "2.627518983055126",
        "perihelion_time": "2452210.843710660907",
        "mean_anomaly": "359.4593334057375",
        "mean_motion": ".4023683148405978",
        "equinox": "J2000",
        "orbit_class": {
            "orbit_class_type": "APO",
            "orbit_class_description": "Near-Earth asteroid orbits which cross the Earth’s orbit similar to that of 1862 Apollo",
            "orbit_class_range": "a (semi-major axis) > 1.0 AU; q (perihelion) < 1.017 AU"
        }
    },
    "is_sentry_object": false
}